[ {"name": "STARLINK-36265", "line1": "1 67208U 25304S   26158.69668601  .00005974  00000+0  50792-3 0  9991", "line2": "2 67208  70.0018 307.6483 0002743 269.5330  90.5514 14.98341862 27364"}, {"name": "STARLINK-36226", "line1": "1 67209U 25304T   26158.70918380 -.00004981  00000+0 -40995-3 0  9999", "line2": "2 67209  70.0020 307.6920 0003344 268.4753  91.6023 14.98326239 27367"}, {"name": "STARLINK-36173", "line1": "1 67210U 25304U   26158.67580304  .00003185  00000+0  27455-3 0  9997", "line2": "2 67210  70.0017 307.5711 0002468 268.7541  91.3335 14.98332476 27369"}, {"name": "STARLINK-36280", "line1": "1 67211U 25304V   26158.73421500  .00000057  00000+0  12599-4 0  9996", "line2": "2 67211  70.0010 307.3764 0002412 268.8704  91.2178 14.98328925 27379"}, {"name": "STARLINK-36213", "line1": "1 67212U 25304W   26158.72586419  .00000837  00000+0  77933-4 0  9996", "line2": "2 67212  70.0023 307.3438 0003045 264.2676  95.8136 14.98330254 27375"}, {"name": "STARLINK-36199", "line1": "1 67213U 25304X   26158.71334088  .00002640  00000+0  22894-3 0  9998", "line2": "2 67213  70.0015 307.3006 0003182 267.1007  92.9788 14.98336470 27377"}, {"name": "STARLINK-36203", "line1": "1 67214U 25304Y   26158.70518087  .00009533  00000+0  80481-3 0  9995", "line2": "2 67214  70.0015 307.6724 0002970 278.5111  81.5711 14.98370387 27368"}, {"name": "STARLINK-36221", "line1": "1 67215U 25304Z   26158.69683800  .00003062  00000+0  26429-3 0  9993", "line2": "2 67215  70.0011 307.6424 0003096 269.5772  90.5032 14.98336156 27367"}, {"name": "STARLINK-36212", "line1": "1 67216U 25304AA  26158.68849112  .00002708  00000+0  23460-3 0  9991", "line2": "2 67216  70.0020 307.6111 0002822 268.7548  91.3288 14.98334385 27363"}, {"name": "STARLINK-36216", "line1": "1 67217U 25304AB  26158.68013712  .00004387  00000+0  37510-3 0  9997", "line2": "2 67217  70.0017 307.5816 0002880 268.6420  91.4409 14.98340642 27351"}, {"name": "STARLINK-36211", "line1": "1 67218U 25304AC  26158.73855062  .00001725  00000+0  15229-3 0  9992", "line2": "2 67218  70.0010 307.3843 0003333 267.0968  92.9809 14.98337635 27344"}, {"name": "STARLINK-36490", "line1": "1 67305U 26002A   26158.34330348  .00041687  00000+0  15167-2 0  9998", "line2": "2 67305  42.9973 178.6582 0000630 273.0161  87.0619 15.27561973 24859"}, {"name": "STARLINK-36488", "line1": "1 67306U 26002B   26158.77930303  .00032277  00000+0  11763-2 0  9996", "line2": "2 67306  43.0050 176.7787 0003111 269.9367  90.1128 15.27606578 24854"}, {"name": "STARLINK-36481", "line1": "1 67307U 26002C   26158.76516992  .00008013  00000+0  30040-3 0  9991", "line2": "2 67307  43.0041 176.6733 0002680 267.4774  92.5771 15.27576932 24850"}, {"name": "STARLINK-36449", "line1": "1 67308U 26002D   26158.75746191  .00020681  00000+0  75869-3 0  9990", "line2": "2 67308  43.0027 176.6114 0001602 266.8175  93.2493 15.27591426 24910"}, {"name": "STARLINK-36482", "line1": "1 67309U 26002E   26158.75359975  .00007210  00000+0  27112-3 0  9992", "line2": "2 67309  42.9976 176.5822 0001631 265.7794  94.2871 15.27597447 24857"}, {"name": "STARLINK-36491", "line1": "1 67310U 26002F   26158.77544816  .00015896  00000+0  58574-3 0  9991", "line2": "2 67310  43.0050 176.7524 0002985 264.8587  95.1924 15.27587750 24853"}, {"name": "STARLINK-36495", "line1": "1 67311U 26002G   26158.74333227  .00009632  00000+0  35903-3 0  9993", "line2": "2 67311  43.0022 176.5004 0000511 267.7071  92.3723 15.27583344 25017"}, {"name": "STARLINK-36485", "line1": "1 67312U 26002H   26158.33687490  .00015093  00000+0  55671-3 0  9995", "line2": "2 67312  42.9955 178.6060 0000256 191.3946 168.6900 15.27588079 24793"}, {"name": "STARLINK-36445", "line1": "1 67313U 26002J   26158.32545698  .00015121  00000+0  55774-3 0  9994", "line2": "2 67313  42.9893 179.3885 0000819 247.7973 112.2791 15.27587319 24945"}, {"name": "STARLINK-36476", "line1": "1 67314U 26002K   26158.76131885  .00016080  00000+0  59243-3 0  9992", "line2": "2 67314  43.0006 176.6381 0001873 266.9937  93.0701 15.27587329 24846"}, {"name": "STARLINK-36463", "line1": "1 67315U 26002L   26158.74077094  .00026711  00000+0  97625-3 0  9990", "line2": "2 67315  42.9967 176.4788 0001787 283.7263  76.3390 15.27593067 24915"}, {"name": "STARLINK-36461", "line1": "1 67316U 26002M   26158.00004630  .00039614  00000+0  14423-2 0  9996", "line2": "2 67316  42.9997 180.6100 0001409 266.4306 356.7062 15.27558153  5884"}, {"name": "STARLINK-36450", "line1": "1 67317U 26002N   26158.32674505  .00018588  00000+0  68316-3 0  9994", "line2": "2 67317  43.0000 179.3984 0001911 271.3820  88.6813 15.27586350 24944"}, {"name": "STARLINK-36498", "line1": "1 67318U 26002P   26158.76648079  .00025218  00000+0  92328-3 0  9998", "line2": "2 67318  43.0038 176.6816 0001585 277.4866  82.5806 15.27562856 24911"}, {"name": "STARLINK-36470", "line1": "1 67319U 26002Q   26158.77031906  .00016574  00000+0  61032-3 0  9998", "line2": "2 67319  42.9977 176.7095 0000322 226.4124 133.6701 15.27585671 24913"}, {"name": "STARLINK-36500", "line1": "1 67320U 26002R   26158.33059888  .00014759  00000+0  54451-3 0  9991", "line2": "2 67320  43.0050 179.4280 0004937 277.4799  82.5492 15.27589836 24843"}, {"name": "STARLINK-36462", "line1": "1 67321U 26002S   26158.77672230  .00001997  00000+0  82041-4 0  9999", "line2": "2 67321  42.9991 176.7553 0000621 139.0350 221.0548 15.27588297 24854"}, {"name": "STARLINK-36434", "line1": "1 67322U 26002T   26158.78058829  .00021087  00000+0  77287-3 0  9990", "line2": "2 67322  43.0015 176.7858 0002869 274.0791  85.9733 15.27609679 24858"}, {"name": "STARLINK-36497", "line1": "1 67323U 26002U   26158.75874801  .00024067  00000+0  88118-3 0  9990", "line2": "2 67323  43.0045 176.6155 0003840 262.0902  97.9514 15.27578612 24911"}]