OBJECT_NAME,OBJECT_ID,EPOCH,MEAN_MOTION,ECCENTRICITY,INCLINATION,RA_OF_ASC_NODE,ARG_OF_PERICENTER,MEAN_ANOMALY,EPHEMERIS_TYPE,CLASSIFICATION_TYPE,NORAD_CAT_ID,ELEMENT_SET_NO,REV_AT_EPOCH,BSTAR,MEAN_MOTION_DOT,MEAN_MOTION_DDOT
STARLINK-36265,2025-304S,2026-06-07T16:43:13.671264,14.98341862,.0002743,70.0018,307.6483,269.5330,90.5514,0,U,67208,999,2736,.50792E-3,.5974E-4,0
STARLINK-36226,2025-304T,2026-06-07T17:01:13.480320,14.98326239,.0003344,70.0020,307.6920,268.4753,91.6023,0,U,67209,999,2736,-.40995E-3,-.4981E-4,0
STARLINK-36173,2025-304U,2026-06-07T16:13:09.382656,14.98332476,.0002468,70.0017,307.5711,268.7541,91.3335,0,U,67210,999,2736,.27455E-3,.3185E-4,0
STARLINK-36280,2025-304V,2026-06-07T17:37:16.176000,14.98328925,.0002412,70.0010,307.3764,268.8704,91.2178,0,U,67211,999,2737,.12599E-4,.57E-6,0
STARLINK-36213,2025-304W,2026-06-07T17:25:14.666016,14.98330254,.0003045,70.0023,307.3438,264.2676,95.8136,0,U,67212,999,2737,.77933E-4,.837E-5,0
STARLINK-36199,2025-304X,2026-06-07T17:07:12.652032,14.98336470,.0003182,70.0015,307.3006,267.1007,92.9788,0,U,67213,999,2737,.22894E-3,.264E-4,0
STARLINK-36203,2025-304Y,2026-06-07T16:55:27.627168,14.98370387,.000297,70.0015,307.6724,278.5111,81.5711,0,U,67214,999,2736,.80481E-3,.9533E-4,0
STARLINK-36221,2025-304Z,2026-06-07T16:43:26.803200,14.98336156,.0003096,70.0011,307.6424,269.5772,90.5032,0,U,67215,999,2736,.26429E-3,.3062E-4,0
STARLINK-36212,2025-304AA,2026-06-07T16:31:25.632768,14.98334385,.0002822,70.0020,307.6111,268.7548,91.3288,0,U,67216,999,2736,.2346E-3,.2708E-4,0
STARLINK-36216,2025-304AB,2026-06-07T16:19:23.847168,14.98340642,.000288,70.0017,307.5816,268.6420,91.4409,0,U,67217,999,2735,.3751E-3,.4387E-4,0
STARLINK-36211,2025-304AC,2026-06-07T17:43:30.773568,14.98337635,.0003333,70.0010,307.3843,267.0968,92.9809,0,U,67218,999,2734,.15229E-3,.1725E-4,0
STARLINK-36490,2026-002A,2026-06-07T08:14:21.420672,15.27561973,.000063,42.9973,178.6582,273.0161,87.0619,0,U,67305,999,2485,.15167E-2,.41687E-3,0
STARLINK-36488,2026-002B,2026-06-07T18:42:11.781792,15.27606578,.0003111,43.0050,176.7787,269.9367,90.1128,0,U,67306,999,2485,.11763E-2,.32277E-3,0
STARLINK-36481,2026-002C,2026-06-07T18:21:50.681088,15.27576932,.000268,43.0041,176.6733,267.4774,92.5771,0,U,67307,999,2485,.3004E-3,.8013E-4,0
STARLINK-36449,2026-002D,2026-06-07T18:10:44.709024,15.27591426,.0001602,43.0027,176.6114,266.8175,93.2493,0,U,67308,999,2491,.75869E-3,.20681E-3,0
STARLINK-36482,2026-002E,2026-06-07T18:05:11.018400,15.27597447,.0001631,42.9976,176.5822,265.7794,94.2871,0,U,67309,999,2485,.27112E-3,.721E-4,0
STARLINK-36491,2026-002F,2026-06-07T18:36:38.721024,15.27587750,.0002985,43.0050,176.7524,264.8587,95.1924,0,U,67310,999,2485,.58574E-3,.15896E-3,0
STARLINK-36495,2026-002G,2026-06-07T17:50:23.908128,15.27583344,.0000511,43.0022,176.5004,267.7071,92.3723,0,U,67311,999,2501,.35903E-3,.9632E-4,0
STARLINK-36485,2026-002H,2026-06-07T08:05:05.991360,15.27588079,.0000256,42.9955,178.6060,191.3946,168.6900,0,U,67312,999,2479,.55671E-3,.15093E-3,0
STARLINK-36445,2026-002J,2026-06-07T07:48:39.483072,15.27587319,.0000819,42.9893,179.3885,247.7973,112.2791,0,U,67313,999,2494,.55774E-3,.15121E-3,0
STARLINK-36476,2026-002K,2026-06-07T18:16:17.948640,15.27587329,.0001873,43.0006,176.6381,266.9937,93.0701,0,U,67314,999,2484,.59243E-3,.1608E-3,0
STARLINK-36463,2026-002L,2026-06-07T17:46:42.609216,15.27593067,.0001787,42.9967,176.4788,283.7263,76.3390,0,U,67315,999,2491,.97625E-3,.26711E-3,0
STARLINK-36461,2026-002M,2026-06-07T00:00:04.000320,15.27558153,.0001409,42.9997,180.6100,266.4306,356.7062,0,U,67316,999,588,.14423E-2,.39614E-3,0
STARLINK-36450,2026-002N,2026-06-07T07:50:30.772320,15.27586350,.0001911,43.0000,179.3984,271.3820,88.6813,0,U,67317,999,2494,.68316E-3,.18588E-3,0
STARLINK-36498,2026-002P,2026-06-07T18:23:43.940256,15.27562856,.0001585,43.0038,176.6816,277.4866,82.5806,0,U,67318,999,2491,.92328E-3,.25218E-3,0
STARLINK-36470,2026-002Q,2026-06-07T18:29:15.566784,15.27585671,.0000322,42.9977,176.7095,226.4124,133.6701,0,U,67319,999,2491,.61032E-3,.16574E-3,0
STARLINK-36500,2026-002R,2026-06-07T07:56:03.743232,15.27589836,.0004937,43.0050,179.4280,277.4799,82.5492,0,U,67320,999,2484,.54451E-3,.14759E-3,0
STARLINK-36462,2026-002S,2026-06-07T18:38:28.806720,15.27588297,.0000621,42.9991,176.7553,139.0350,221.0548,0,U,67321,999,2485,.82041E-4,.1997E-4,0
STARLINK-36434,2026-002T,2026-06-07T18:44:02.828256,15.27609679,.0002869,43.0015,176.7858,274.0791,85.9733,0,U,67322,999,2485,.77287E-3,.21087E-3,0
STARLINK-36497,2026-002U,2026-06-07T18:12:35.828064,15.27578612,.000384,43.0045,176.6155,262.0902,97.9514,0,U,67323,999,2491,.88118E-3,.24067E-3,0
